CUTE-1 (CO-55)          
1 27844U 03031E   22241.01736866  .00000131  00000+0  78352-4 0  9993
2 27844  98.6801 247.6119 0008669 249.9603 110.0642 14.22484572994220
CUBESAT XI-IV (CO-57)   
1 27848U 03031J   22241.00304951  .00000110  00000+0  69391-4 0  9992
2 27848  98.6846 248.1020 0008529 266.2787  93.7416 14.22037490994027
CUBESAT XI-V            
1 28895U 05043F   22240.81010313  .00000483  00000+0  10025-3 0  9996
2 28895  98.1159  11.1134 0015289 273.6881  86.2574 14.64440592898004
CUTE-1.7+APD II (CO-65) 
1 32785U 08021C   22240.83895447  .00001085  00000+0  11861-3 0  9997
2 32785  97.6639 209.4269 0012613   1.9748 358.1517 14.89791128777338
AAUSAT-II               
1 32788U 08021F   22241.46021712  .00001838  00000+0  16052-3 0  9999
2 32788  97.5399 224.2332 0009290 232.6615 127.3762 14.97957156779460
DELFI-C3 (DO-64)        
1 32789U 08021G   22240.63176412  .00008271  00000+0  44371-3 0  9999
2 32789  97.3359 264.3781 0011903  78.5564 281.7005 15.15142534782851
SEEDS II (CO-66)        
1 32791U 08021J   22241.16914175  .00001371  00000+0  13720-3 0  9995
2 32791  97.6177 215.1644 0011385 313.6471  46.3804 14.92969272778128
SWISSCUBE               
1 35932U 09051B   22240.55777090  .00000344  00000+0  87416-4 0  9997
2 35932  98.5604  98.4838 0007329 176.9573 183.1670 14.56936281686590
BEESAT-1                
1 35933U 09051C   22241.54243145  .00000297  00000+0  77079-4 0  9998
2 35933  98.5540 101.0736 0005378 183.8207 176.2950 14.56944110686898
ITUPSAT1                
1 35935U 09051E   22240.57390053  .00000259  00000+0  69748-4 0  9995
2 35935  98.5643 100.1162 0007522 194.2315 165.8671 14.56046732686376
TISAT 1                 
1 36799U 10035E   22241.50284396  .00001133  00000+0  11443-3 0  9994
2 36799  98.1754  94.8138 0010868 210.6720 149.3864 14.93157126658861
M-CUBED & EXP-1 PRIME   
1 37855U 11061F   22241.38572221  .00009320  00000+0  40050-3 0  9993
2 37855 101.7189  39.1607 0150752 203.7437 155.6774 15.13369603592737
AEROCUBE 4.5A           
1 38767U 12048K   22241.49629500  .00002089  00000+0  15415-3 0  9999
2 38767  64.6621 241.3874 0172306 242.6864 115.6616 14.95277057161706
AEROCUBE 4.5B           
1 38768U 12048L   22240.87651395  .00003250  00000+0  21126-3 0  9995
2 38768  64.6653 196.2029 0158415 238.2710 120.2884 15.00198219162011
STRAND-1                
1 39090U 13009E   22240.52051872  .00000098  00000+0  49077-4 0  9991
2 39090  98.4020  76.7675 0010140  60.4294 299.7901 14.35317757497735
BRITE-AUSTRIA           
1 39091U 13009F   22240.50631213  .00000069  00000+0  39009-4 0  9995
2 39091  98.4037  75.9326 0011611  66.2473 293.9930 14.35294034497768
SOMP                    
1 39134U 13015E   22240.29915183  .00010592  00000+0  36194-3 0  9990
2 39134  64.8610 185.7997 0035480 268.8580  90.8488 15.30115006517844
BEESAT-3                
1 39135U 13015F   22240.68468248  .00007769  00000+0  31132-3 0  9998
2 39135  64.8639 222.3780 0039321 274.1682  85.4955 15.25006176517126
BEESAT-2                
1 39136U 13015G   22240.71509019  .00007227  00000+0  30392-3 0  9991
2 39136  64.8723 230.8767 0021201 296.7015  63.1943 15.23947775516922
NEE-01 PEGASO           
1 39151U 13018B   22241.20881336  .00000623  00000+0  87029-4 0  9994
2 39151  97.9954 346.6432 0017204  23.9949 336.2062 14.81077828504458
ESTCUBE 1               
1 39161U 13021C   22241.17507294  .00000443  00000+0  76390-4 0  9992
2 39161  97.9050 316.5134 0009066 180.0415 180.0821 14.73058952500172
POPACS 1                
1 39268U 13055D   22241.19221250  .00015699  00000+0  39344-3 0  9990
2 39268  80.9987 161.1631 0562758 340.7050  17.3561 14.52604153465326
POPACS 2                
1 39269U 13055E   22241.38664592  .00005275  00000+0  14196-3 0  9999
2 39269  81.0103 219.9493 0644444 132.9181 232.7982 14.33766420461855
POPACS 3                
1 39270U 13055F   22240.76481368  .00003092  00000+0  94110-4 0  9990
2 39270  81.0113 254.7624 0685774 231.4192 122.3641 14.22495994438919
ZACUBE-1 (TSHEPISOSAT)  
1 39417U 13066B   22241.46695131  .00000846  00000+0  10862-3 0  9993
2 39417  97.6430 209.7013 0057921 163.6467 196.6633 14.82535015473949
WNISAT-1                
1 39423U 13066H   22241.26390687  .00000173  00000+0  44199-4 0  9990
2 39423  97.7429 117.3436 0172920 270.4667  87.6704 14.53549808465025
TRITON-1                
1 39427U 13066M   22241.35209206  .00001112  00000+0  17986-3 0  9997
2 39427  97.8137 173.9852 0112575  32.3464 328.4579 14.69111884469673
DELFI-N3XT              
1 39428U 13066N   22240.78212479  .00001826  00000+0  28515-3 0  9992
2 39428  97.8143 172.0415 0118284  47.0587 314.0468 14.69408626469152
GOMX-1                  
1 39430U 13066Q   22241.29332560  .00000324  00000+0  66262-4 0  9990
2 39430  97.8031 144.3198 0148816 174.6983 185.5828 14.60316530466928
CUBEBUG-2 (LO-74)       
1 39440U 13066AA  22240.87070895  .00000799  00000+0  11475-3 0  9995
2 39440  97.7313 195.4112 0076855 256.3953 102.8689 14.77202635470977
NEE-02 KRYSAOR          
1 39441U 13066AB  22240.86855581  .00000581  00000+0  87890-4 0  9992
2 39441  97.7422 192.5520 0078798 270.7271  88.4911 14.75883643471870
FUNCUBE-1 (AO-73)       
1 39444U 13066AE  22241.49693244  .00001102  00000+0  13603-3 0  9991
2 39444  97.6309 212.1463 0057096 151.3457 209.0916 14.83652965472944
UWE-3                   
1 39446U 13066AG  22241.37595579  .00000673  00000+0  92942-4 0  9998
2 39446  97.6917 202.3204 0067499 210.4260 149.3028 14.79758230471836
AEROCUBE 5A             
1 39465U 13072D   22240.78421627  .00045928  00000+0  24133-2 0  9999
2 39465 120.4826 223.3340 0188533 357.7860   2.2362 15.01286871160464
AEROCUBE 5B             
1 39466U 13072E   22241.09271447  .00108648  00000+0  29708-2 0  9990
2 39466 120.4552 320.8450 0118708  17.8185 342.7008 15.29780228161798
BRITE-CA1 (TORONTO)     
1 40020U 14033L   22241.39564852  .00000186  00000+0  39632-4 0  9991
2 40020  97.7875  36.6782 0087461  31.6993 328.9436 14.67113856438462
DUCHIFAT-1              
1 40021U 14033M   22241.38947019  .00001491  00000+0  14817-3 0  9998
2 40021  98.0170 192.9508 0012943 153.0170 207.1724 14.93228570445584
NANOSATC-BR1            
1 40024U 14033Q   22241.11695745  .00001485  00000+0  15213-3 0  9992
2 40024  97.9888 185.6539 0012190 160.2477 199.9216 14.92017897445332
QB50P1                  
1 40025U 14033R   22240.82141125  .00001159  00000+0  12374-3 0  9991
2 40025  97.9619 178.8040 0012170 171.4067 188.7362 14.90745349444541
QB50P2                  
1 40032U 14033Y   22241.07665048  .00001114  00000+0  12090-3 0  9998
2 40032  97.9381 174.1644 0011687 167.9952 192.1546 14.90154326444956
PERSEUS-M2              
1 40037U 14033AD  22240.77114400  .00000466  00000+0  57899-4 0  9996
2 40037  97.8935 162.5835 0013726 194.9427 165.1385 14.87200405443878
PERSEUS-M1              
1 40039U 14033AF  22241.52527258  .00000428  00000+0  54105-4 0  9996
2 40039  97.8831 160.9600 0013655 191.4104 168.6804 14.86807486444373
POLYITAN-1              
1 40042U 14033AJ  22241.37039308  .00001477  00000+0  15571-3 0  9995
2 40042  97.9728 180.6498 0014510 162.6665 197.5051 14.90816314445023
TIGRISAT                
1 40043U 14033AK  22241.48930970  .00000523  00000+0  82827-4 0  9993
2 40043  97.6574  66.8163 0057668 280.1750  79.2959 14.75119311440693
AEROCUBE 6A             
1 40045U 14033AM  22240.50913486  .00000525  00000+0  80760-4 0  9996
2 40045  97.6645  74.8835 0055207 270.7133  88.7752 14.76511249440655
AEROCUBE 6B             
1 40046U 14033AN  22240.53585528  .00001031  00000+0  15024-3 0  9995
2 40046  97.6562  73.3372 0054161 268.5508  90.9498 14.76926079440803
UKUBE-1                 
1 40074U 14037F   22241.23266363  .00000682  00000+0  85748-4 0  9993
2 40074  98.3732 125.6815 0005572  58.8603 301.3150 14.85599644440877
BRITE-PL2 (HEWELIUSZ)   
1 40119U 14049B   22240.76941115  .00000540  00000+0  69139-4 0  9997
2 40119  97.8848 335.6608 0017331  10.4661 349.6912 14.85244901434749
FIREBIRD 4              
1 40378U 15003C   22241.47133674  .00012118  00000+0  34485-3 0  9996
2 40378  99.0891 122.9751 0097439 136.4933 224.4043 15.31636680419606
GRIFEX                  
1 40379U 15003D   22241.40753878  .00006293  00000+0  21869-3 0  9993
2 40379  99.1021 107.9887 0112983 181.7176 178.3685 15.24303038418743
CP10 (EXOCUBE)          
1 40380U 15003E   22240.82244095  .00005463  00000+0  20849-3 0  9991
2 40380  99.1127  99.7373 0121056 209.1177 150.3267 15.20622438418152
TIANWANG 1A (TW-1A)     
1 40928U 15051D   22241.37245519  .00034299  00000+0  34485-3 0  9995
2 40928  97.0338 263.6527 0009380 110.9613  17.7170 15.65328812389629
EXACTVIEW 9             
1 40936U 15052G   22240.82226750  .00001232  00000+0  81435-4 0  9999
2 40936   6.0045  17.0035 0009737 102.4046 257.7172 14.77258024373934
AEROCUBE 5C             
1 40965U 15058B   22240.69147294  .00000377  00000+0  60692-4 0  9998
2 40965  64.7756 232.1197 0183633 176.8151 183.4173 14.75807594159629
AEROCUBE 7              
1 40966U 15058C   22241.40699376  .00000450  00000+0  68182-4 0  9996
2 40966  64.7757 226.9465 0181439 176.2164 184.0365 14.76404912159752
ATHENOXAT 1             
1 41168U 15077C   22240.32584454  .00006771  00000+0  25187-3 0  9991
2 41168  14.9866 277.1079 0008879 175.6013 275.7665 15.22412035371277
GALASSIA                
1 41170U 15077E   22240.27045310  .00007237  00000+0  27918-3 0  9993
2 41170  14.9877 268.9621 0010695 198.1952 161.7988 15.21458831371178
VELOX-II                
1 41171U 15077F   22240.48727227  .00005529  00000+0  23933-3 0  9996
2 41171  14.9921 344.4735 0007686  34.1733 325.9082 15.16584536370621
HORYU-4                 
1 41340U 16012D   22240.40483746  .00001715  00000+0  11581-3 0  9990
2 41340  31.0036 259.4940 0013260 196.8065 163.2133 15.03651878358567
